{"type": "FeatureCollection", "crs_declared": "EPSG:4326", "features": [{"type": "Feature", "geometry": {"type": "Polygon", "coordinates": [[[-109.5056158030556, 31.0982981138042], [-108.71484547997288, 31.158611631790684], [-110.73964644693545, 31.147564757399145], [-111.23329022403507, 31.235047896762556], [-111.22096123573107, 32.28719924912611], [-111.31102409200678, 32.91653450320245], [-111.88599173283852, 33.85908728281642], [-111.99424759364172, 34.211508636997756], [-111.85859363949236, 34.407722097643585], [-111.60101712170855, 34.52485045993445], [-110.5946271535039, 34.80496677393579], [-109.82620551780981, 34.83075752695771], [-109.10300027920964, 35.21078776120283], [-108.76516464205386, 35.59995822764785], [-108.65039662605813, 36.01514530412835], [-108.74574049463287, 36.77214494762395], [-108.97533660056065, 37.24709635022431], [-109.0158203367679, 37.55751694110075], [-108.870612514806, 37.74892577636892], [-108.65794655908432, 37.855524516512325], [-108.26545824559447, 37.88639033446264], [-107.21458543108223, 37.606966539325256], [-106.73197011352053, 37.32721588102859], [-105.85984889819545, 36.48893156191984], [-105.74272028660116, 35.8673805476198], [-106.0469965868126, 35.576969448476945], [-106.58726226060811, 35.45006416906896], [-106.89680446165887, 35.24822581168417], [-106.90334752698202, 34.796307293049374], [-106.78217735090703, 34.171987524463106], [-106.94648574083641, 33.66177598151325], [-107.28576024102377, 33.27308652040831], [-108.10470511447183, 32.84521821604431], [-108.69272773596907, 32.34153944310487], [-108.772194428971, 32.1069475073899], [-108.65962596399956, 31.162823326268374], [-108.07866176142251, 31.207134542806536], [-108.06062585337357, 31.52882876916193], [-107.9657844448766, 31.626880537293275], [-106.57207952137749, 31.597888068983483], [-106.50210402881558, 31.421674705040942], [-106.05527788232905, 31.22477558425289], [-105.36733759124189, 30.678942157983496], [-104.14455096573727, 31.9842372091164], [-103.21525143819892, 33.214070082388034], [-102.78572814754, 34.04945635085786], [-102.62039035926195, 34.82435063588486], [-102.70760359775967, 36.07971798957089], [-102.88920122056538, 37.05697052702033], [-103.39765269565441, 38.54881724082454], [-104.54689198509365, 40.56991329307307], [-104.86165642347105, 40.81778241236446], [-105.69333385605945, 40.9899467368728], [-107.07590095013477, 40.85801090633033], [-108.19613941970864, 40.51402080985826], [-109.49484262495845, 39.83704028542532], [-111.51481313953421, 38.365202019993426], [-112.29887664160398, 37.56959862919528], [-112.88252968508274, 36.65361866447342], [-113.0910989035956, 35.54626962703964], [-113.04665200157744, 34.59847178877331], [-112.51888179816262, 31.600120576373286], [-110.95246701259897, 31.141421863883235], [-109.5056158030556, 31.0982981138042]]]}, "properties": {"outlook": "Marginal (At Least 5%)", "level": 1, "issue_time": "2026-09-14 07:29:00", "start_time": "2026-09-14 12:00:00", "end_time": "2026-09-15 12:00:00"}}, {"type": "Feature", "geometry": {"type": "Polygon", "coordinates": [[[-82.2959634760884, 44.94955674848094], [-82.1732647078613, 44.941355424164065], [-82.1629256217606, 45.02743283183075], [-82.2959634760884, 44.94955674848094]]]}, "properties": {"outlook": "Marginal (At Least 5%)", "level": 1, "issue_time": "2026-09-14 07:29:00", "start_time": "2026-09-14 12:00:00", "end_time": "2026-09-15 12:00:00"}}, {"type": "Feature", "geometry": {"type": "Polygon", "coordinates": [[[-100.12463208620318, 38.94165626300828], [-99.77932186940222, 38.862828030777365], [-98.92654081351063, 38.88415224554755], [-95.7992080003692, 39.14791144348475], [-94.25939698992973, 39.14816954731213], [-93.74509338063348, 39.233708360864576], [-93.17052882015794, 39.44968477486754], [-91.7133342081089, 40.3104936833743], [-88.09390094149225, 41.786583042582734], [-87.0150130185944, 42.09181880260372], [-85.38776772930007, 43.10298908961829], [-82.59989800955505, 44.92657133749705], [-82.199221160585, 45.2006699540062], [-82.2253187844539, 45.45950388480191], [-83.28420977434264, 45.783895757457906], [-83.30178637199015, 46.12509322773229], [-83.41434701622873, 46.217760887462596], [-83.78046803968621, 46.2391134962525], [-83.94750026618578, 46.375251210630715], [-84.03619341084216, 46.67801719646295], [-84.4656190618162, 46.70142113609505], [-84.62505249412465, 46.920579056041596], [-84.91545806434087, 47.10536173392593], [-88.40372522522033, 48.54932395648153], [-89.43099065632406, 48.20470819370811], [-90.49402351747642, 48.23103866527487], [-90.7970881125405, 48.44594878428665], [-91.55442826923021, 48.33514599281682], [-92.67239385470988, 48.72537690804251], [-93.11109855279993, 48.81290701879649], [-93.61563975847525, 48.775414002064885], [-94.24421805057275, 48.90314209224839], [-94.43159410081661, 48.98581077111848], [-94.61988896230609, 49.52440426290715], [-95.44536366709653, 49.52427531141605], [-95.62945149263336, 48.44572958540862], [-95.93789836977335, 47.9439333704209], [-96.36827620979574, 47.5226795489776], [-98.48361207525792, 45.977005440061625], [-99.06294849640419, 45.24170271931057], [-99.09060209487166, 44.4703315213629], [-98.62491534109131, 43.272970259752064], [-98.65863091841973, 42.57850257636344], [-99.21504727155438, 41.78244499454842], [-100.71440328289256, 40.33793628694422], [-100.9720522749569, 39.80039348027036], [-100.89475771729511, 39.449518903037905], [-100.65187381792289, 39.192038267188956], [-100.12463208620318, 38.94165626300828]], [[-94.08212761724954, 39.85449401928804], [-95.17289933507469, 39.768589910106726], [-96.72541820188255, 39.980700850545546], [-97.36167645185542, 40.149568023163766], [-97.88772489748432, 40.40628203941053], [-98.0082665106769, 40.58013109631679], [-98.01598636632731, 40.8434653797992], [-97.85065425630015, 41.153066570452594], [-97.39688476687799, 41.64085323048698], [-96.41350944041974, 42.39254999449683], [-95.06017451742974, 43.22215948252498], [-92.83964627715022, 44.330765274386934], [-91.86692000317645, 44.70341947467022], [-89.96870232274874, 45.26196416620316], [-88.74090209723552, 45.48213099779813], [-87.95215603961067, 45.454962511390406], [-87.362279942154, 45.218455833843755], [-87.20172678589503, 44.95518104614157], [-87.22251991909664, 44.698739118810984], [-87.94716982384517, 43.86645231516099], [-90.06638547529023, 42.15699590419895], [-91.33408266375535, 41.22591907912667], [-92.34077458447308, 40.585233356058424], [-93.215662125783, 40.15631594557087], [-94.08212761724954, 39.85449401928804]]]}, "properties": {"outlook": "Marginal (At Least 5%)", "level": 1, "issue_time": "2026-09-14 07:29:00", "start_time": "2026-09-14 12:00:00", "end_time": "2026-09-15 12:00:00"}}, {"type": "Feature", "geometry": {"type": "Polygon", "coordinates": [[[-110.73964644693545, 31.147564757399145], [-108.65916002403138, 31.158915439755503], [-108.772194428971, 32.1069475073899], [-108.69272773596907, 32.34153944310487], [-108.10470511447183, 32.84521821604431], [-107.28576024102377, 33.27308652040831], [-106.94648574083641, 33.66177598151325], [-106.78217735090703, 34.171987524463106], [-106.90334752698202, 34.796307293049374], [-106.89680446165887, 35.24822581168417], [-106.58726226060811, 35.45006416906896], [-106.0469965868126, 35.576969448476945], [-105.74272028660116, 35.8673805476198], [-105.85984889819545, 36.48893156191984], [-106.73197011352053, 37.32721588102859], [-107.21458543108223, 37.606966539325256], [-108.26545824559447, 37.88639033446264], [-108.65794655908432, 37.855524516512325], [-108.870612514806, 37.74892577636892], [-109.0158203367679, 37.55751694110075], [-108.97533660056065, 37.24709635022431], [-108.74574049463287, 36.77214494762395], [-108.65039662605813, 36.01514530412835], [-108.76516464205386, 35.59995822764785], [-109.10300027920964, 35.21078776120283], [-109.82620551780981, 34.83075752695771], [-110.5946271535039, 34.80496677393579], [-111.60101712170855, 34.52485045993445], [-111.85859363949236, 34.407722097643585], [-111.99424759364172, 34.211508636997756], [-111.88599173283852, 33.85908728281642], [-111.31102409200678, 32.91653450320245], [-111.22096123573107, 32.28719924912611], [-111.23329022403507, 31.235047896762556], [-110.73964644693545, 31.147564757399145]]]}, "properties": {"outlook": "Slight (At Least 15%)", "level": 2, "issue_time": "2026-09-14 07:29:00", "start_time": "2026-09-14 12:00:00", "end_time": "2026-09-15 12:00:00"}}, {"type": "Feature", "geometry": {"type": "Polygon", "coordinates": [[[-96.72541820188255, 39.980700850545546], [-95.17289933507469, 39.768589910106726], [-94.08212761724954, 39.85449401928804], [-93.215662125783, 40.15631594557087], [-92.34077458447308, 40.585233356058424], [-91.33408266375535, 41.22591907912667], [-90.06638547529023, 42.15699590419895], [-87.94716982384517, 43.86645231516099], [-87.22251991909664, 44.698739118810984], [-87.20172678589503, 44.95518104614157], [-87.362279942154, 45.218455833843755], [-87.95215603961067, 45.454962511390406], [-88.74090209723552, 45.48213099779813], [-89.96870232274874, 45.26196416620316], [-91.86692000317645, 44.70341947467022], [-92.83964627715022, 44.330765274386934], [-95.06017451742974, 43.22215948252498], [-96.41350944041974, 42.39254999449683], [-97.39688476687799, 41.64085323048698], [-97.85065425630015, 41.153066570452594], [-98.01598636632731, 40.8434653797992], [-98.0082665106769, 40.58013109631679], [-97.88772489748432, 40.40628203941053], [-97.36167645185542, 40.149568023163766], [-96.72541820188255, 39.980700850545546]], [[-94.13107343492418, 40.86655976027624], [-94.36299681973325, 40.86753385978175], [-94.6525428441564, 41.04387572512541], [-94.88447461294203, 41.3944147355673], [-94.88407578610871, 41.743975115849835], [-94.70787027923636, 42.00549405516592], [-94.1777945289836, 42.26537670595136], [-93.82457774798864, 42.30696779050384], [-93.23728041906524, 42.25874079657689], [-92.82961876002771, 42.08015967234792], [-92.77841225378717, 41.73042893922244], [-92.89987949374346, 41.51343781093181], [-93.72358234439952, 40.99567407340511], [-94.13107343492418, 40.86655976027624]]]}, "properties": {"outlook": "Slight (At Least 15%)", "level": 2, "issue_time": "2026-09-14 07:29:00", "start_time": "2026-09-14 12:00:00", "end_time": "2026-09-15 12:00:00"}}, {"type": "Feature", "geometry": {"type": "Polygon", "coordinates": [[[-94.36299681973325, 40.86753385978175], [-94.13107343492418, 40.86655976027624], [-93.72358234439952, 40.99567407340511], [-92.89987949374346, 41.51343781093181], [-92.77841225378717, 41.73042893922244], [-92.82961876002771, 42.08015967234792], [-93.23728041906524, 42.25874079657689], [-93.82457774798864, 42.30696779050384], [-94.1777945289836, 42.26537670595136], [-94.70787027923636, 42.00549405516592], [-94.88407578610871, 41.743975115849835], [-94.88447461294203, 41.3944147355673], [-94.6525428441564, 41.04387572512541], [-94.36299681973325, 40.86753385978175]]]}, "properties": {"outlook": "Moderate (At Least 40%)", "level": 3, "issue_time": "2026-09-14 07:29:00", "start_time": "2026-09-14 12:00:00", "end_time": "2026-09-15 12:00:00"}}], "properties": {"source": "NOAA/WPC Excessive Rainfall Outlook, Day 1 (public domain)", "generated_utc": "20260914T141608Z", "issue_time": "2026-09-14 07:29:00", "n_areas": 6, "skipped": 0, "levels": {"1": "marginal", "2": "slight", "3": "moderate", "4": "high"}, "declared_boundary": "Outlook only — a forecast of excessive-rainfall potential (Day 1), not observed flooding and not damage. No damage or exposure conclusions are supported. Does not replace official NWS warnings."}}
